{"type": "FeatureCollection", "name": "estaciones_de_subte_WGS84", "crs": {"type": "name", "properties": {"name": "urn:ogc:def:crs:OGC:1.3:CRS84"}}, "features": [{"type": "Feature", "properties": {"ID": 1.0, "ESTACION": "CASEROS", "LINEA": "H"}, "geometry": {"type": "Point", "coordinates": [-58.39892758536007, -34.63575018034302]}}, {"type": "Feature", "properties": {"ID": 2.0, "ESTACION": "INCLAN - MEZQUITA AL AHMAD", "LINEA": "H"}, "geometry": {"type": "Point", "coordinates": [-58.4009695560165, -34.62937565757282]}}, {"type": "Feature", "properties": {"ID": 3.0, "ESTACION": "HUMBERTO 1°", "LINEA": "H"}, "geometry": {"type": "Point", "coordinates": [-58.402322730424025, -34.6230923205019]}}, {"type": "Feature", "properties": {"ID": 4.0, "ESTACION": "VENEZUELA", "LINEA": "H"}, "geometry": {"type": "Point", "coordinates": [-58.40473171649001, -34.615242152270575]}}, {"type": "Feature", "properties": {"ID": 5.0, "ESTACION": "ONCE - 30 DE DICIEMBRE", "LINEA": "H"}, "geometry": {"type": "Point", "coordinates": [-58.406036381035165, -34.608935241621545]}}, {"type": "Feature", "properties": {"ID": 6.0, "ESTACION": "9 DE JULIO", "LINEA": "D"}, "geometry": {"type": "Point", "coordinates": [-58.38057434288961, -34.60424520296293]}}, {"type": "Feature", "properties": {"ID": 7.0, "ESTACION": "FACULTAD DE MEDICINA", "LINEA": "D"}, "geometry": {"type": "Point", "coordinates": [-58.39792375557337, -34.599757080763894]}}, {"type": "Feature", "properties": {"ID": 8.0, "ESTACION": "TRIBUNALES - TEATRO COLÓN", "LINEA": "D"}, "geometry": {"type": "Point", "coordinates": [-58.38514235880128, -34.60158716513937]}}, {"type": "Feature", "properties": {"ID": 9.0, "ESTACION": "AGÜERO", "LINEA": "D"}, "geometry": {"type": "Point", "coordinates": [-58.40716132018985, -34.59162784371989]}}, {"type": "Feature", "properties": {"ID": 10.0, "ESTACION": "R.SCALABRINI ORTIZ", "LINEA": "D"}, "geometry": {"type": "Point", "coordinates": [-58.41595541900666, -34.58515594404935]}}, {"type": "Feature", "properties": {"ID": 11.0, "ESTACION": "PLAZA ITALIA", "LINEA": "D"}, "geometry": {"type": "Point", "coordinates": [-58.42119601012643, -34.58141119360452]}}, {"type": "Feature", "properties": {"ID": 12.0, "ESTACION": "PALERMO", "LINEA": "D"}, "geometry": {"type": "Point", "coordinates": [-58.42571144111234, -34.57842202279036]}}, {"type": "Feature", "properties": {"ID": 13.0, "ESTACION": "RETIRO", "LINEA": "C"}, "geometry": {"type": "Point", "coordinates": [-58.374018216481595, -34.59119380833323]}}, {"type": "Feature", "properties": {"ID": 14.0, "ESTACION": "LAVALLE", "LINEA": "C"}, "geometry": {"type": "Point", "coordinates": [-58.378155782824365, -34.60176992301137]}}, {"type": "Feature", "properties": {"ID": 15.0, "ESTACION": "DIAGONAL NORTE", "LINEA": "C"}, "geometry": {"type": "Point", "coordinates": [-58.37952998007387, -34.604843739914045]}}, {"type": "Feature", "properties": {"ID": 16.0, "ESTACION": "AV. DE MAYO", "LINEA": "C"}, "geometry": {"type": "Point", "coordinates": [-58.38061071795791, -34.60898331488271]}}, {"type": "Feature", "properties": {"ID": 17.0, "ESTACION": "MORENO", "LINEA": "C"}, "geometry": {"type": "Point", "coordinates": [-58.38044446966005, -34.61261727980374]}}, {"type": "Feature", "properties": {"ID": 18.0, "ESTACION": "INDEPENDENCIA", "LINEA": "C"}, "geometry": {"type": "Point", "coordinates": [-58.38017361047525, -34.6181255992933]}}, {"type": "Feature", "properties": {"ID": 19.0, "ESTACION": "CONSTITUCION", "LINEA": "C"}, "geometry": {"type": "Point", "coordinates": [-58.381434433934324, -34.627619452254756]}}, {"type": "Feature", "properties": {"ID": 20.0, "ESTACION": "FLORIDA", "LINEA": "B"}, "geometry": {"type": "Point", "coordinates": [-58.37507151826356, -34.603297285577526]}}, {"type": "Feature", "properties": {"ID": 21.0, "ESTACION": "C. PELLEGRINI", "LINEA": "B"}, "geometry": {"type": "Point", "coordinates": [-58.38071484714089, -34.60363710518173]}}, {"type": "Feature", "properties": {"ID": 22.0, "ESTACION": "URUGUAY", "LINEA": "B"}, "geometry": {"type": "Point", "coordinates": [-58.38729613354081, -34.60409355310568]}}, {"type": "Feature", "properties": {"ID": 23.0, "ESTACION": "CALLAO - MAESTRO ALFREDO BRAVO", "LINEA": "B"}, "geometry": {"type": "Point", "coordinates": [-58.39231423508875, -34.60441954286078]}}, {"type": "Feature", "properties": {"ID": 24.0, "ESTACION": "PASTEUR - AMIA", "LINEA": "B"}, "geometry": {"type": "Point", "coordinates": [-58.39947425667902, -34.60464296791929]}}, {"type": "Feature", "properties": {"ID": 25.0, "ESTACION": "PUEYRREDON", "LINEA": "B"}, "geometry": {"type": "Point", "coordinates": [-58.40539943984338, -34.60458105535122]}}, {"type": "Feature", "properties": {"ID": 26.0, "ESTACION": "CARLOS GARDEL", "LINEA": "B"}, "geometry": {"type": "Point", "coordinates": [-58.41176259963214, -34.60407951734746]}}, {"type": "Feature", "properties": {"ID": 27.0, "ESTACION": "ALMAGRO - MEDRANO", "LINEA": "B"}, "geometry": {"type": "Point", "coordinates": [-58.420962470270595, -34.60316490109725]}}, {"type": "Feature", "properties": {"ID": 28.0, "ESTACION": "ANGEL GALLARDO", "LINEA": "B"}, "geometry": {"type": "Point", "coordinates": [-58.43127386032458, -34.60216222934273]}}, {"type": "Feature", "properties": {"ID": 29.0, "ESTACION": "MALABIA - OSVALDO PUGLIESE", "LINEA": "B"}, "geometry": {"type": "Point", "coordinates": [-58.43977149841552, -34.59896736415876]}}, {"type": "Feature", "properties": {"ID": 30.0, "ESTACION": "DORREGO", "LINEA": "B"}, "geometry": {"type": "Point", "coordinates": [-58.447573092531215, -34.59171815361977]}}, {"type": "Feature", "properties": {"ID": 31.0, "ESTACION": "PERU", "LINEA": "A"}, "geometry": {"type": "Point", "coordinates": [-58.37426772643044, -34.60855907385324]}}, {"type": "Feature", "properties": {"ID": 32.0, "ESTACION": "PIEDRAS", "LINEA": "A"}, "geometry": {"type": "Point", "coordinates": [-58.37908515309085, -34.608881721214985]}}, {"type": "Feature", "properties": {"ID": 33.0, "ESTACION": "LIMA", "LINEA": "A"}, "geometry": {"type": "Point", "coordinates": [-58.38223240101814, -34.60909980655193]}}, {"type": "Feature", "properties": {"ID": 34.0, "ESTACION": "SAENZ PEÑA", "LINEA": "A"}, "geometry": {"type": "Point", "coordinates": [-58.3867771940873, -34.609412586502664]}}, {"type": "Feature", "properties": {"ID": 35.0, "ESTACION": "CONGRESO - PDTE. DR. RAÚL R. ALFONSÍN", "LINEA": "A"}, "geometry": {"type": "Point", "coordinates": [-58.39266882466484, -34.60922568431741]}}, {"type": "Feature", "properties": {"ID": 36.0, "ESTACION": "PASCO", "LINEA": "A"}, "geometry": {"type": "Point", "coordinates": [-58.39842699181232, -34.60964596170525]}}, {"type": "Feature", "properties": {"ID": 37.0, "ESTACION": "ALBERTI", "LINEA": "A"}, "geometry": {"type": "Point", "coordinates": [-58.40120753423301, -34.60983357843983]}}, {"type": "Feature", "properties": {"ID": 38.0, "ESTACION": "PLAZA DE MISERERE", "LINEA": "A"}, "geometry": {"type": "Point", "coordinates": [-58.406707116508805, -34.609817245670584]}}, {"type": "Feature", "properties": {"ID": 39.0, "ESTACION": "LORIA", "LINEA": "A"}, "geometry": {"type": "Point", "coordinates": [-58.41518570883756, -34.61078169045037]}}, {"type": "Feature", "properties": {"ID": 40.0, "ESTACION": "CASTRO BARROS", "LINEA": "A"}, "geometry": {"type": "Point", "coordinates": [-58.42181567137058, -34.61177022912553]}}, {"type": "Feature", "properties": {"ID": 41.0, "ESTACION": "RIO DE JANEIRO", "LINEA": "A"}, "geometry": {"type": "Point", "coordinates": [-58.429500323299706, -34.61520561033119]}}, {"type": "Feature", "properties": {"ID": 42.0, "ESTACION": "ACOYTE", "LINEA": "A"}, "geometry": {"type": "Point", "coordinates": [-58.43642852884934, -34.61827996714456]}}, {"type": "Feature", "properties": {"ID": 43.0, "ESTACION": "PRIMERA JUNTA", "LINEA": "A"}, "geometry": {"type": "Point", "coordinates": [-58.44117762511089, -34.6204052128589]}}, {"type": "Feature", "properties": {"ID": 44.0, "ESTACION": "BOLIVAR", "LINEA": "E"}, "geometry": {"type": "Point", "coordinates": [-58.373684224168464, -34.609242428860796]}}, {"type": "Feature", "properties": {"ID": 45.0, "ESTACION": "BELGRANO", "LINEA": "E"}, "geometry": {"type": "Point", "coordinates": [-58.37758088654061, -34.612849105818626]}}, {"type": "Feature", "properties": {"ID": 46.0, "ESTACION": "INDEPENDENCIA", "LINEA": "E"}, "geometry": {"type": "Point", "coordinates": [-58.38153494171223, -34.61793739397715]}}, {"type": "Feature", "properties": {"ID": 47.0, "ESTACION": "SAN JOSE", "LINEA": "E"}, "geometry": {"type": "Point", "coordinates": [-58.38514854962375, -34.622339491936735]}}, {"type": "Feature", "properties": {"ID": 48.0, "ESTACION": "ENTRE RIOS - RODOLFO WALSH", "LINEA": "E"}, "geometry": {"type": "Point", "coordinates": [-58.3915116999715, -34.62271966612777]}}, {"type": "Feature", "properties": {"ID": 49.0, "ESTACION": "PICHINCHA", "LINEA": "E"}, "geometry": {"type": "Point", "coordinates": [-58.397068074662556, -34.6231098657791]}}, {"type": "Feature", "properties": {"ID": 50.0, "ESTACION": "JUJUY", "LINEA": "E"}, "geometry": {"type": "Point", "coordinates": [-58.40293658025606, -34.623865711583456]}}, {"type": "Feature", "properties": {"ID": 51.0, "ESTACION": "URQUIZA", "LINEA": "E"}, "geometry": {"type": "Point", "coordinates": [-58.40939078344363, -34.62465378646617]}}, {"type": "Feature", "properties": {"ID": 52.0, "ESTACION": "JOSE MARIA MORENO", "LINEA": "E"}, "geometry": {"type": "Point", "coordinates": [-58.43381625023947, -34.62801754877422]}}, {"type": "Feature", "properties": {"ID": 53.0, "ESTACION": "EMILIO MITRE", "LINEA": "E"}, "geometry": {"type": "Point", "coordinates": [-58.442170705965225, -34.63104184216546]}}, {"type": "Feature", "properties": {"ID": 54.0, "ESTACION": "BULNES", "LINEA": "D"}, "geometry": {"type": "Point", "coordinates": [-58.41129390139358, -34.58823710841819]}}, {"type": "Feature", "properties": {"ID": 55.0, "ESTACION": "PUEYRREDON", "LINEA": "D"}, "geometry": {"type": "Point", "coordinates": [-58.402395342535065, -34.59442571862847]}}, {"type": "Feature", "properties": {"ID": 56.0, "ESTACION": "CALLAO", "LINEA": "D"}, "geometry": {"type": "Point", "coordinates": [-58.39312518097272, -34.599639552419006]}}, {"type": "Feature", "properties": {"ID": 57.0, "ESTACION": "SAN MARTIN", "LINEA": "C"}, "geometry": {"type": "Point", "coordinates": [-58.377819050986716, -34.595057404779155]}}, {"type": "Feature", "properties": {"ID": 58.0, "ESTACION": "SAN JUAN", "LINEA": "C"}, "geometry": {"type": "Point", "coordinates": [-58.37992117886512, -34.62191673220814]}}, {"type": "Feature", "properties": {"ID": 59.0, "ESTACION": "MEDALLA MILAGROSA", "LINEA": "E"}, "geometry": {"type": "Point", "coordinates": [-58.45027825637088, -34.63638918938583]}}, {"type": "Feature", "properties": {"ID": 60.0, "ESTACION": "AV. LA PLATA", "LINEA": "E"}, "geometry": {"type": "Point", "coordinates": [-58.42678902289721, -34.62701546700199]}}, {"type": "Feature", "properties": {"ID": 61.0, "ESTACION": "BOEDO", "LINEA": "E"}, "geometry": {"type": "Point", "coordinates": [-58.415532818967826, -34.62536610589256]}}, {"type": "Feature", "properties": {"ID": 62.0, "ESTACION": "MINISTRO CARRANZA - MIGUEL ABUELO", "LINEA": "D"}, "geometry": {"type": "Point", "coordinates": [-58.435013533733844, -34.57517836411129]}}, {"type": "Feature", "properties": {"ID": 63.0, "ESTACION": "OLLEROS", "LINEA": "D"}, "geometry": {"type": "Point", "coordinates": [-58.44466814833486, -34.57001230782571]}}, {"type": "Feature", "properties": {"ID": 64.0, "ESTACION": "JOSE HERNANDEZ", "LINEA": "D"}, "geometry": {"type": "Point", "coordinates": [-58.45212560338894, -34.5662152421589]}}, {"type": "Feature", "properties": {"ID": 65.0, "ESTACION": "JURAMENTO", "LINEA": "D"}, "geometry": {"type": "Point", "coordinates": [-58.45648913458901, -34.562309086997445]}}, {"type": "Feature", "properties": {"ID": 66.0, "ESTACION": "FEDERICO LACROZE", "LINEA": "B"}, "geometry": {"type": "Point", "coordinates": [-58.455029286280954, -34.587197852990386]}}, {"type": "Feature", "properties": {"ID": 67.0, "ESTACION": "PLAZA DE LOS VIRREYES - EVA PERON", "LINEA": "E"}, "geometry": {"type": "Point", "coordinates": [-58.46165176168981, -34.6433121624098]}}, {"type": "Feature", "properties": {"ID": 68.0, "ESTACION": "VARELA", "LINEA": "E"}, "geometry": {"type": "Point", "coordinates": [-58.45789175577313, -34.64013735229803]}}, {"type": "Feature", "properties": {"ID": 69.0, "ESTACION": "CATEDRAL", "LINEA": "D"}, "geometry": {"type": "Point", "coordinates": [-58.37395580695111, -34.60780233642894]}}, {"type": "Feature", "properties": {"ID": 70.0, "ESTACION": "PLAZA DE MAYO", "LINEA": "A"}, "geometry": {"type": "Point", "coordinates": [-58.37096849896736, -34.60881030916889]}}, {"type": "Feature", "properties": {"ID": 71.0, "ESTACION": "CONGRESO DE TUCUMAN", "LINEA": "D"}, "geometry": {"type": "Point", "coordinates": [-58.46237840822431, -34.5556417664261]}}, {"type": "Feature", "properties": {"ID": 72.0, "ESTACION": "LEANDRO N. ALEM", "LINEA": "B"}, "geometry": {"type": "Point", "coordinates": [-58.36992985012244, -34.60298949663324]}}, {"type": "Feature", "properties": {"ID": 73.0, "ESTACION": "TRONADOR - VILLA ORTÚZAR", "LINEA": "B"}, "geometry": {"type": "Point", "coordinates": [-58.466227204692146, -34.58409462011609]}}, {"type": "Feature", "properties": {"ID": 74.0, "ESTACION": "DE LOS INCAS -PQUE. CHAS", "LINEA": "B"}, "geometry": {"type": "Point", "coordinates": [-58.47424082617713, -34.58124884595791]}}, {"type": "Feature", "properties": {"ID": 75.0, "ESTACION": "CARABOBO", "LINEA": "A"}, "geometry": {"type": "Point", "coordinates": [-58.45670979752376, -34.6266665931803]}}, {"type": "Feature", "properties": {"ID": 76.0, "ESTACION": "PUAN", "LINEA": "A"}, "geometry": {"type": "Point", "coordinates": [-58.44864765402636, -34.623528952889345]}}, {"type": "Feature", "properties": {"ID": 77.0, "ESTACION": "CORRIENTES", "LINEA": "H"}, "geometry": {"type": "Point", "coordinates": [-58.40545032848424, -34.604490201608144]}}, {"type": "Feature", "properties": {"ID": 78.0, "ESTACION": "PARQUE PATRICIOS", "LINEA": "H"}, "geometry": {"type": "Point", "coordinates": [-58.405794825968556, -34.6384059882851]}}, {"type": "Feature", "properties": {"ID": 79.0, "ESTACION": "HOSPITALES", "LINEA": "H"}, "geometry": {"type": "Point", "coordinates": [-58.41238515120049, -34.64126894339088]}}, {"type": "Feature", "properties": {"ID": 80.0, "ESTACION": "ECHEVERRÍA", "LINEA": "B"}, "geometry": {"type": "Point", "coordinates": [-58.48101350367205, -34.577797377542254]}}, {"type": "Feature", "properties": {"ID": 81.0, "ESTACION": "JUAN MANUEL DE ROSAS - VILLA URQUIZA", "LINEA": "B"}, "geometry": {"type": "Point", "coordinates": [-58.48638534788912, -34.57431891427483]}}, {"type": "Feature", "properties": {"ID": 83.0, "ESTACION": "SAN PEDRITO", "LINEA": "A"}, "geometry": {"type": "Point", "coordinates": [-58.46963962922468, -34.630707087006]}}, {"type": "Feature", "properties": {"ID": 82.0, "ESTACION": "SAN JOSÉ DE FLORES", "LINEA": "A"}, "geometry": {"type": "Point", "coordinates": [-58.46354051062865, -34.62908722679703]}}, {"type": "Feature", "properties": {"ID": 84.0, "ESTACION": "CÓRDOBA", "LINEA": "H"}, "geometry": {"type": "Point", "coordinates": [-58.403721496438735, -34.59845511177341]}}, {"type": "Feature", "properties": {"ID": 85.0, "ESTACION": "LAS HERAS", "LINEA": "H"}, "geometry": {"type": "Point", "coordinates": [-58.39721557510185, -34.58746154642616]}}, {"type": "Feature", "properties": {"ID": 86.0, "ESTACION": "SANTA FE - CARLOS JAUREGUI", "LINEA": "H"}, "geometry": {"type": "Point", "coordinates": [-58.402376175034945, -34.59452539621877]}}, {"type": "Feature", "properties": {"ID": 87.0, "ESTACION": "FACULTAD DE DERECHO - JULIETA LANTERI", "LINEA": "H"}, "geometry": {"type": "Point", "coordinates": [-58.39101882656002, -34.5830363400093]}}, {"type": "Feature", "properties": {"ID": 90.0, "ESTACION": "RETIRO", "LINEA": "E"}, "geometry": {"type": "Point", "coordinates": [-58.37584983743046, -34.59211436193101]}}, {"type": "Feature", "properties": {"ID": 89.0, "ESTACION": "CATALINAS", "LINEA": "E"}, "geometry": {"type": "Point", "coordinates": [-58.371700332990066, -34.59659681897499]}}, {"type": "Feature", "properties": {"ID": 88.0, "ESTACION": "CORREO CENTRAL", "LINEA": "E"}, "geometry": {"type": "Point", "coordinates": [-58.3704125010713, -34.60301390592315]}}]}